satname,norad_id,inclination_deg,eccentricity,mean_motion_rev_per_day,perigee_km,apogee_km,l1,l2
STARLINK-1506,45747,53.064,0.0001992,15.21803128,499.03162150207027,501.7720313705213,1 45747U 20038T   25316.54100132  .00018259  00000+0  80645-3 0  9993,2 45747  53.0640  22.5468 0001992 296.4091  63.6700 15.21803128298828
STARLINK-1464,45751,53.056,0.0001333,15.0640974,546.2585614183745,548.1048513855003,1 45751U 20038X   25316.59619917  .00007259  00000+0  50556-3 0  9995,2 45751  53.0560  22.2674 0001333 109.1589 250.9544 15.06409740298834
STARLINK-1477,45754,53.0545,0.0002577,15.07454561,542.1975348061815,545.765194611352,1 45754U 20038AA  25316.53895742  .00027524  00000+0  18072-2 0  9997,2 45754  53.0545  22.4669 0002577  23.5988 336.5120 15.07454561298821
STARLINK-1478,45755,53.0546,0.0001396,15.06443084,546.1127546051339,548.0462750560746,1 45755U 20038AB  25316.23128794  .00031235  00000+0  21041-2 0  9995,2 45755  53.0546  23.9078 0001396  97.9213 262.1935 15.06443084298765
STARLINK-1484,45756,53.0149,0.0003486,15.63792138,374.3600473448678,379.06953001193415,1 45756U 20038AC  25316.91668980  .00199000  00000+0  20413-2 0  9994,2 45756  53.0149 281.5213 0003486  65.6129 204.9304 15.63792138  6006
STARLINK-1493,45759,53.0557,0.0001694,15.06409344,546.0097708776311,548.3560692665524,1 45759U 20038AF  25316.61831027 -.00010416  00000+0 -68122-3 0  9993,2 45759  53.0557  22.1713 0001694  89.4902 270.6281 15.06409344298826
STARLINK-1494,45760,53.0553,0.0003547,15.52510888,406.9902976019648,411.8053748147704,1 45760U 20038AG  25316.83706231  .00052627  00000+0  84587-3 0  9998,2 45760  53.0553   2.3176 0003547  41.7842 318.3438 15.52510888299136
STARLINK-1502,45764,53.0559,0.0001442,15.06466987,546.007654380759,548.0048656969557,1 45764U 20038AL  25316.58512498  .00031836  00000+0  21427-2 0  9996,2 45764  53.0559  22.3201 0001442 103.3608 256.7542 15.06466987298830
STARLINK-1470,45772,53.0517,0.0004197,15.18721008,506.8141420310403,512.5957965800744,1 45772U 20038AU  25316.54516209  .00048405  00000+0  23027-2 0  9993,2 45772  53.0517 353.9748 0004197 312.6186  47.4454 15.18721008299220
STARLINK-1482,45773,53.0551,0.0001582,15.06452806,545.9541553422596,548.1452844204296,1 45773U 20038AV  25316.55011257  .00022383  00000+0  15146-2 0  9998,2 45773  53.0551   2.4761 0001582  94.9135 265.2035 15.06452806299105
STARLINK-1496,45780,53.0547,0.0001235,15.06422703,546.2867054332755,547.9972493406895,1 45780U 20038BC  25316.31789806  .00014704  00000+0  10034-2 0  9991,2 45780  53.0547   3.5193 0001235 110.4832 249.6290 15.06422703299058
STARLINK-1497,45781,53.0388,0.0006382,15.57920154,389.3555919526416,397.99913580669727,1 45781U 20038BD  25316.91668980  .00179516  00000+0  23122-2 0  9992,2 45781  53.0388 301.8170 0006382   0.0418 114.3778 15.57920154  5977
STARLINK-1510,45784,53.0302,0.000456,15.75603473,339.8496775425092,345.9792764895474,1 45784U 20038BG  25316.91668980  .00278935  00000+0  17359-2 0  9995,2 45784  53.0302 276.5086 0004560  93.0612 276.1641 15.75603473  5859
STARLINK-1513,45786,53.056,0.0001321,15.06402457,546.2891900476397,548.1188651471311,1 45786U 20038BJ  25316.54642750  .00002962  00000+0  21767-3 0  9997,2 45786  53.0560   2.4955 0001321  91.1651 268.9489 15.06402457299107
STARLINK-1522,46027,53.0547,0.0001506,15.06429765,546.0773902478013,548.1632777568029,1 46027U 20055A   25316.26169472  .00013278  00000+0  90791-3 0  9994,2 46027  53.0547 293.7718 0001506  92.3123 267.8038 15.06429765291184
STARLINK-1523,46028,53.0542,0.0001068,15.06409753,546.4420425256521,547.9212905928289,1 46028U 20055B   25316.14374692  .00000503  00000+0  52660-4 0  9995,2 46028  53.0542 294.3059 0001068  81.1259 278.9851 15.06409753291185
STARLINK-1526,46029,53.0546,0.0001535,15.06411419,546.1135249374429,548.2395962005376,1 46029U 20055C   25316.20272352  .00005941  00000+0  41728-3 0  9996,2 46029  53.0546 294.0338 0001535  75.2280 284.8880 15.06411419291184
STARLINK-1555,46032,53.0555,0.0001407,15.06387873,546.2743239244064,548.2231274676178,1 46032U 20055F   25316.25433280 -.00002798  00000+0 -16907-3 0  9994,2 46032  53.0555 293.8065 0001407  83.7184 276.3965 15.06387873291194
STARLINK-1556,46033,53.0549,0.0001377,15.06443947,546.1232680373387,548.0304719371334,1 46033U 20055G   25316.30223994  .00013703  00000+0  93592-3 0  9991,2 46033  53.0549 293.5890 0001377  97.3242 262.7903 15.06443947291177
STARLINK-1557,46034,53.0549,0.0001417,15.06405679,546.2128332515485,548.1754721002162,1 46034U 20055H   25316.17323729  .00001432  00000+0  11499-3 0  9996,2 46034  53.0549 294.1690 0001417  92.7945 267.3206 15.06405679291152
STARLINK-1558,46035,53.0549,0.0001403,15.06428173,546.1535988081341,548.0968273851286,1 46035U 20055J   25316.24694792  .00011267  00000+0  77347-3 0  9997,2 46035  53.0549 293.8403 0001403 104.6944 255.4200 15.06428173291198
STARLINK-1560,46036,53.0555,0.0001549,15.06442022,546.010053012109,548.1554860967171,1 46036U 20055K   25316.29855393  .00018145  00000+0  12325-2 0  9995,2 46036  53.0555 293.6099 0001549  89.7189 270.3977 15.06442022291208
STARLINK-1567,46038,53.0545,0.0001678,15.0642594,545.9699965674372,548.2941168628713,1 46038U 20055M   25316.24326713  .00015381  00000+0  10485-2 0  9995,2 46038  53.0545 293.8561 0001678 101.7925 258.3252 15.06425940291180
STARLINK-1569,46039,53.0555,0.0001569,15.06434449,546.0194081035033,548.1925493502276,1 46039U 20055N   25316.25063503  .00017662  00000+0  12005-2 0  9996,2 46039  53.0555 293.8223 0001569 112.6748 247.4407 15.06434449291185
STARLINK-1582,46043,53.0558,0.0001556,15.06422447,546.0651884395547,548.2203355014799,1 46043U 20055S   25316.25800190  .00002383  00000+0  17872-3 0  9994,2 46043  53.0558 293.7896 0001556  98.9353 261.1813 15.06422447291181
STARLINK-1591,46045,53.0552,0.0001051,15.06400235,546.4829836394756,547.93869175496,1 46045U 20055U   25316.15112639 -.00002987  00000+0 -18175-3 0  9998,2 46045  53.0552 294.2670 0001051 112.1868 247.9233 15.06400235291159
STARLINK-1524,46047,53.0544,0.0001446,15.06412349,546.1723103617041,548.175110219121,1 46047U 20055W   25316.30316839  .00004689  00000+0  33338-3 0  9992,2 46047  53.0544 283.5867 0001446 112.8480 247.2662 15.06412349291334
STARLINK-1527,46048,53.0552,0.000166,15.06394515,546.0787580730921,548.3779793755093,1 46048U 20055X   25316.29948534  .00000231  00000+0  34435-4 0  9993,2 46048  53.0552 283.6016 0001660  88.4182 271.6998 15.06394515291311
